<?xml version="1.0" encoding="UTF-8"?>
<kml xmlns="http://www.opengis.net/kml/2.2">
  <Document>
    <name>Praktikum Mandiri Peta area polygon</name>
    <Style id="poly-000000-1200-77-normal">
      <LineStyle>
        <color>ff000000</color>
        <width>1.2</width>
      </LineStyle>
      <PolyStyle>
        <color>4d000000</color>
        <fill>1</fill>
        <outline>1</outline>
      </PolyStyle>
    </Style>
    <Style id="poly-000000-1200-77-highlight">
      <LineStyle>
        <color>ff000000</color>
        <width>1.8</width>
      </LineStyle>
      <PolyStyle>
        <color>4d000000</color>
        <fill>1</fill>
        <outline>1</outline>
      </PolyStyle>
    </Style>
    <StyleMap id="poly-000000-1200-77">
      <Pair>
        <key>normal</key>
        <styleUrl>#poly-000000-1200-77-normal</styleUrl>
      </Pair>
      <Pair>
        <key>highlight</key>
        <styleUrl>#poly-000000-1200-77-highlight</styleUrl>
      </Pair>
    </StyleMap>
    <Placemark>
      <name>Polygon 1</name>
      <description>DKI JAKARTA</description>
      <styleUrl>#poly-000000-1200-77</styleUrl>
      <Polygon>
        <outerBoundaryIs>
          <LinearRing>
            <tessellate>1</tessellate>
            <coordinates>
              106.7258639,-6.0878628,0
              106.7098421,-6.0969664,0
              106.6855806,-6.0956008,0
              106.6864962,-6.1065249,0
              106.6993136,-6.1138076,0
              106.6869539,-6.1242761,0
              106.6901583,-6.1351996,0
              106.6901583,-6.1743404,0
              106.7249483,-6.1916343,0
              106.7249483,-6.2066521,0
              106.7167086,-6.2257652,0
              106.7382235,-6.2257652,0
              106.7556185,-6.2571636,0
              106.7528719,-6.2735447,0
              106.77988,-6.3194999,0
              106.8096346,-6.318135,0
              106.7904085,-6.3663609,0
              106.8119234,-6.3649961,0
              106.8160433,-6.3572621,0
              106.8329806,-6.3536224,0
              106.8512911,-6.3386088,0
              106.8618197,-6.3572621,0
              106.8723482,-6.3558972,0
              106.8892855,-6.3713653,0
              106.9126314,-6.3645412,0
              106.92316,-6.3017553,0
              106.9117159,-6.2962953,0
              106.9034762,-6.2603489,0
              106.9144625,-6.2548884,0
              106.9423861,-6.2521582,0
              106.9515414,-6.2175739,0
              106.9666476,-6.2080174,0
              106.9680209,-6.1907241,0
              106.9684786,-6.0915042,0
              106.921329,-6.0996974,0
              106.8773836,-6.093325,0
              106.847629,-6.1206349,0
              106.8151278,-6.1165385,0
              106.7995638,-6.0978767,0
              106.7839999,-6.1083456,0
              106.764316,-6.1010629,0
              106.7395968,-6.1010629,0
              106.7258639,-6.0878628,0
            </coordinates>
          </LinearRing>
        </outerBoundaryIs>
      </Polygon>
    </Placemark>
    <Placemark>
      <name>Polygon 2</name>
      <description>DIY Yogyakarta</description>
      <styleUrl>#poly-000000-1200-77</styleUrl>
      <Polygon>
        <outerBoundaryIs>
          <LinearRing>
            <tessellate>1</tessellate>
            <coordinates>
              110.0264908,-7.8984044,0
              110.148187,-7.9493579,0
              110.1994566,-7.9856254,0
              110.3377012,-8.0227964,0
              110.3605893,-8.0626833,0
              110.7039121,-8.1850392,0
              110.7020811,-8.2031629,0
              110.7908872,-8.1950073,0
              110.8302831,-8.2039555,0
              110.8341741,-8.1909293,0
              110.834403,-8.1755238,0
              110.8277654,-8.1707661,0
              110.8163213,-8.1549067,0
              110.8192967,-8.1435782,0
              110.8101415,-8.1549067,0
              110.7957219,-8.1619302,0
              110.785463,-8.151335,0
              110.7909561,-8.1069249,0
              110.752504,-8.0316885,0
              110.7671525,-7.9836387,0
              110.7671525,-7.9265155,0
              110.7909561,-7.8612222,0
              110.7726456,-7.8077102,0
              110.7570817,-7.8276646,0
              110.7305313,-7.7913832,0
              110.7085587,-7.8040821,0
              110.6627823,-7.8022679,0
              110.5867936,-7.7877549,0
              110.5602433,-7.7823123,0
              110.5364396,-7.7950115,0
              110.4952408,-7.7659843,0
              110.4458024,-7.5436791,0
              110.3981949,-7.5872419,0
              110.3075577,-7.6507631,0
              110.2718521,-7.7033877,0
              110.2581192,-7.6371522,0
              110.2379776,-7.6489483,0
              110.1949478,-7.6489483,0
              110.1445939,-7.6462261,0
              110.117128,-7.6661882,0
              110.1354386,-7.7024804,0
              110.115297,-7.77052,0
              110.0631119,-7.8122454,0
              110.0585343,-7.8358275,0
              110.0264908,-7.8984044,0
            </coordinates>
          </LinearRing>
        </outerBoundaryIs>
      </Polygon>
    </Placemark>
    <Placemark>
      <name>Polygon 3</name>
      <description>Kota Administrasi Depok, Jawa Barat </description>
      <styleUrl>#poly-000000-1200-77</styleUrl>
      <Polygon>
        <outerBoundaryIs>
          <LinearRing>
            <tessellate>1</tessellate>
            <coordinates>
              106.8829339,-6.4642563,0
              106.9014733,-6.4171768,0
              106.9101708,-6.4083063,0
              106.9264214,-6.4035298,0
              106.9282525,-6.3901098,0
              106.9003289,-6.3967061,0
              106.9074242,-6.3866979,0
              106.9094841,-6.3801015,0
              106.8591301,-6.3803289,0
              106.8595879,-6.3387013,0
              106.8389885,-6.3448433,0
              106.8181603,-6.3641787,0
              106.8040288,-6.371602,0
              106.7699254,-6.3663702,0
              106.7783941,-6.3340684,0
              106.7850316,-6.3085895,0
              106.7543615,-6.3115469,0
              106.7440618,-6.3238315,0
              106.747495,-6.3611384,0
              106.7156804,-6.3593186,0
              106.7028631,-6.3734217,0
              106.7236913,-6.3920737,0
              106.7317022,-6.4123172,0
              106.7321599,-6.423917,0
              106.7342199,-6.4377909,0
              106.7510427,-6.4425671,0
              106.7476094,-6.4477982,0
              106.7490972,-6.4528017,0
              106.7540181,-6.4616714,0
              106.7623723,-6.4650828,0
              106.7947592,-6.4642877,0
              106.8237127,-6.461444,0
              106.8369878,-6.4589423,0
              106.8829339,-6.4642563,0
            </coordinates>
          </LinearRing>
        </outerBoundaryIs>
      </Polygon>
    </Placemark>
  </Document>
</kml>
