<?xml version="1.0" encoding="UTF-8"?>
<kml xmlns="http://www.opengis.net/kml/2.2">
  <Document>
    <name>Taman Monas</name>
    <Style id="poly-000000-1200-77-normal">
      <LineStyle>
        <color>ff000000</color>
        <width>1.2</width>
      </LineStyle>
      <PolyStyle>
        <color>4d000000</color>
        <fill>1</fill>
        <outline>1</outline>
      </PolyStyle>
    </Style>
    <Style id="poly-000000-1200-77-highlight">
      <LineStyle>
        <color>ff000000</color>
        <width>1.8</width>
      </LineStyle>
      <PolyStyle>
        <color>4d000000</color>
        <fill>1</fill>
        <outline>1</outline>
      </PolyStyle>
    </Style>
    <StyleMap id="poly-000000-1200-77">
      <Pair>
        <key>normal</key>
        <styleUrl>#poly-000000-1200-77-normal</styleUrl>
      </Pair>
      <Pair>
        <key>highlight</key>
        <styleUrl>#poly-000000-1200-77-highlight</styleUrl>
      </Pair>
    </StyleMap>
    <Placemark>
      <name>Polygon 1</name>
      <description>Monas</description>
      <styleUrl>#poly-000000-1200-77</styleUrl>
      <Polygon>
        <outerBoundaryIs>
          <LinearRing>
            <tessellate>1</tessellate>
            <coordinates>
              106.823327,-6.1714935,0
              106.8230409,-6.180553,0
              106.8310803,-6.1803255,0
              106.8313092,-6.1795575,0
              106.829893,-6.1779219,0
              106.8299645,-6.1736411,0
              106.8291491,-6.1729584,0
              106.829378,-6.1719344,0
              106.8291778,-6.1715078,0
              106.823327,-6.1714935,0
            </coordinates>
          </LinearRing>
        </outerBoundaryIs>
      </Polygon>
    </Placemark>
    <Placemark>
      <name>Polygon 2</name>
      <description>GBK</description>
      <styleUrl>#poly-000000-1200-77</styleUrl>
      <Polygon>
        <outerBoundaryIs>
          <LinearRing>
            <tessellate>1</tessellate>
            <coordinates>
              106.7988051,-6.2154884,0
              106.7984934,-6.2209066,0
              106.8028677,-6.2227411,0
              106.8035258,-6.2234663,0
              106.8069304,-6.2212336,0
              106.8070591,-6.215787,0
              106.7988051,-6.2154884,0
            </coordinates>
          </LinearRing>
        </outerBoundaryIs>
      </Polygon>
    </Placemark>
    <Placemark>
      <name>Polygon 3</name>
      <description>TMI</description>
      <styleUrl>#poly-000000-1200-77</styleUrl>
      <Polygon>
        <outerBoundaryIs>
          <LinearRing>
            <tessellate>1</tessellate>
            <coordinates>
              106.8892687,-6.3038421,0
              106.8892938,-6.3050471,0
              106.8903702,-6.3049831,0
              106.8906635,-6.3046703,0
              106.8906599,-6.3043078,0
              106.8903917,-6.3037781,0
              106.8892687,-6.3038421,0
            </coordinates>
          </LinearRing>
        </outerBoundaryIs>
      </Polygon>
    </Placemark>
    <Placemark>
      <name>Polygon 4</name>
      <description>Ragunan</description>
      <styleUrl>#poly-000000-1200-77</styleUrl>
      <Polygon>
        <outerBoundaryIs>
          <LinearRing>
            <tessellate>1</tessellate>
            <coordinates>
              106.8205609,-6.3058766,0
              106.8161192,-6.3049382,0
              106.8168273,-6.307071,0
              106.8164053,-6.3079596,0
              106.8159976,-6.3079383,0
              106.8155899,-6.3098826,0
              106.8161335,-6.3107073,0
              106.8169775,-6.3106362,0
              106.8172922,-6.3115035,0
              106.8177071,-6.3114893,0
              106.8176499,-6.314269,0
              106.816248,-6.3143401,0
              106.8164339,-6.3170771,0
              106.8247595,-6.3177169,0
              106.8253889,-6.3147026,0
              106.8245865,-6.3137931,0
              106.8246437,-6.3132528,0
              106.8254734,-6.3134661,0
              106.8256165,-6.3129969,0
              106.8250586,-6.3129969,0
              106.8251444,-6.3126414,0
              106.824658,-6.312613,0
              106.8247295,-6.3120016,0
              106.8257166,-6.3121296,0
              106.8259169,-6.311248,0
              106.8266178,-6.3115893,0
              106.8271185,-6.3086603,0
              106.8245007,-6.3084612,0
              106.8246008,-6.3063,0
              106.8228127,-6.3062858,0
              106.8225552,-6.3066413,0
              106.8205811,-6.3064706,0
              106.8205609,-6.3058766,0
            </coordinates>
          </LinearRing>
        </outerBoundaryIs>
      </Polygon>
    </Placemark>
    <Placemark>
      <name>Polygon 5</name>
      <description>Tebet Eco Park</description>
      <styleUrl>#poly-000000-1200-77</styleUrl>
      <Polygon>
        <outerBoundaryIs>
          <LinearRing>
            <tessellate>1</tessellate>
            <coordinates>
              106.850869,-6.2327315,0
              106.8505765,-6.2335642,0
              106.8508339,-6.2345739,0
              106.8523932,-6.235484,0
              106.8526507,-6.236323,0
              106.851635,-6.2398781,0
              106.852522,-6.2422103,0
              106.8540097,-6.242196,0
              106.8529862,-6.2397848,0
              106.8537157,-6.2369834,0
              106.8534296,-6.2347082,0
              106.8529289,-6.2348361,0
              106.8525856,-6.2333288,0
              106.8513411,-6.2335136,0
              106.8513697,-6.2330586,0
              106.850869,-6.2327315,0
            </coordinates>
          </LinearRing>
        </outerBoundaryIs>
      </Polygon>
    </Placemark>
  </Document>
</kml>
